{
    "links": {
        "self": "http://www.neowsapp.com/rest/v1/neo/3719866?api_key=iIulBulltgU6a56xZRHN4H3l9WmuAYTsLGpBGhQ2"
    },
    "id": "3719866",
    "neo_reference_id": "3719866",
    "name": "(2015 KR57)",
    "designation": "2015 KR57",
    "nasa_jpl_url": "http://ssd.jpl.nasa.gov/sbdb.cgi?sstr=3719866",
    "absolute_magnitude_h": 22.4,
    "estimated_diameter": {
        "kilometers": {
            "estimated_diameter_min": 0.0880146521,
            "estimated_diameter_max": 0.1968067451
        },
        "meters": {
            "estimated_diameter_min": 88.0146520901,
            "estimated_diameter_max": 196.8067450894
        },
        "miles": {
            "estimated_diameter_min": 0.0546897524,
            "estimated_diameter_max": 0.122290004
        },
        "feet": {
            "estimated_diameter_min": 288.7619911632,
            "estimated_diameter_max": 645.6914415591
        }
    },
    "is_potentially_hazardous_asteroid": false,
    "close_approach_data": [
        {
            "close_approach_date": "2015-08-13",
            "close_approach_date_full": "2015-Aug-13 20:07",
            "epoch_date_close_approach": 1439496420000,
            "relative_velocity": {
                "kilometers_per_second": "18.1446388519",
                "kilometers_per_hour": "65320.6998666708",
                "miles_per_hour": "40587.74264771"
            },
            "miss_distance": {
                "astronomical": "0.4208044008",
                "lunar": "163.6929119112",
                "kilometers": "62951442.046306296",
                "miles": "39116212.2447110448"
            },
            "orbiting_body": "Earth"
        }
    ],
    "orbital_data": {
        "orbit_id": "3",
        "orbit_determination_date": "2017-04-06 08:33:32",
        "first_observation_date": "2015-05-20",
        "last_observation_date": "2015-05-24",
        "data_arc_in_days": 4,
        "observations_used": 17,
        "orbit_uncertainty": "9",
        "minimum_orbit_intersection": ".120188",
        "jupiter_tisserand_invariant": "3.761",
        "epoch_osculation": "2457164.5",
        "eccentricity": ".7111168254466216",
        "semi_major_axis": "1.763662634772512",
        "inclination": "8.123962992883005",
        "ascending_node_longitude": "32.62093355701411",
        "orbital_period": "855.5033171699353",
        "perihelion_distance": ".5094924607742588",
        "perihelion_argument": "338.2280810814047",
        "aphelion_distance": "3.017832808770765",
        "perihelion_time": "2457271.004835387354",
        "mean_anomaly": "315.1822418803885",
        "mean_motion": ".4208049142239508",
        "equinox": "J2000",
        "orbit_class": {
            "orbit_class_type": "APO",
            "orbit_class_description": "Near-Earth asteroid orbits which cross the Earth’s orbit similar to that of 1862 Apollo",
            "orbit_class_range": "a (semi-major axis) > 1.0 AU; q (perihelion) < 1.017 AU"
        }
    },
    "is_sentry_object": false
}